QIANFAN-57              
1 62787U 25016C   25337.41896454  .00000134  00000+0  18897-3 0  9998
2 62787  88.9780 104.1597 0001977 127.4501 232.6830 13.50973320 45942
QIANFAN-58              
1 62788U 25016D   25337.46425682  .00000149  00000+0  21149-3 0  9995
2 62788  88.9749 103.9896 0013858  16.9117 343.2494 13.50975076 45993
QIANFAN-59              
1 62789U 25016E   25337.41486389  .00000153  00000+0  21830-3 0  9994
2 62789  88.9773 104.0661 0014351  20.6656 339.5072 13.50976770 45983
QIANFAN-60              
1 62790U 25016F   25337.44795000  .00000049  00000+0  56507-4 0  9996
2 62790  88.9754 104.0359 0015725  16.5766 343.5896 13.50980040 45973
QIANFAN-61              
1 62791U 25016G   25337.48071226  .00000142  00000+0  20187-3 0  9996
2 62791  88.9821 104.1892 0014699  16.1441 344.0175 13.50977205 45994
QIANFAN-62              
1 62792U 25016H   25337.41073889  .00000137  00000+0  19410-3 0  9998
2 62792  88.9767 104.0698 0016084  16.1429 344.0231 13.50973604 45973
QIANFAN-63              
1 62793U 25016J   25337.43549947  .00000147  00000+0  20928-3 0  9991
2 62793  88.9774 104.0183 0016286  21.3504 338.8323 13.50980301 46018
QIANFAN-64              
1 62794U 25016K   25337.47656817  .00000114  00000+0  15863-3 0  9997
2 62794  88.9759 103.9890 0013985  15.1849 344.9719 13.50974934 46013
